IRIDIUM 155             
1 43573U 18061E   23358.58549046  .00000059  00000+0  13928-4 0  9990
2 43573  86.3964  75.1683 0002348  94.8051 265.3413 14.34215697283553
IRIDIUM 154             
1 43574U 18061F   23358.28738744  .00000531  00000+0  18256-3 0  9996
2 43574  86.3967  75.3823 0001994 102.4250 257.7169 14.34223681283564
IRIDIUM 163             
1 43575U 18061G   23358.26836019  .00000415  00000+0  14130-3 0  9997
2 43575  86.3972  75.3347 0001860  91.0562 269.0846 14.34214940283536
IRIDIUM 156             
1 43576U 18061H   23358.59183182  .00000512  00000+0  17568-3 0  9996
2 43576  86.3965  75.2048 0002084  88.9609 271.1826 14.34219444283572
IRIDIUM 164             
1 43577U 18061J   23358.71234045  .00000508  00000+0  17449-3 0  9999
2 43577  86.3966  75.1807 0001880  91.0977 269.0434 14.34219200283630
IRIDIUM 159             
1 43578U 18061K   23358.61084844  .00000527  00000+0  18106-3 0  9991
2 43578  86.3964  75.1790 0002052  98.8587 261.2841 14.34224078283583
IRIDIUM 180             
1 43922U 19002A   23358.54058533  .00000500  00000+0  17145-3 0  9991
2 43922  86.3969  12.0819 0002061  95.7621 264.3810 14.34219033259227
IRIDIUM 176             
1 43923U 19002B   23358.55722095  .00001747  00000+0  27294-3 0  9994
2 43923  86.6098  12.1059 0002446  91.6657 268.4841 14.72275054266002
IRIDIUM 168             
1 43924U 19002C   23358.60400744  .00000515  00000+0  17665-3 0  9998
2 43924  86.3971  12.1070 0002098  92.2540 267.8896 14.34218600259179
IRIDIUM 173             
1 43925U 19002D   23358.59132764  .00000356  00000+0  11999-3 0  9998
2 43925  86.3969  12.0387 0002252  94.4099 265.7354 14.34217755259167
IRIDIUM 169             
1 43926U 19002E   23358.56659768  .00000575  00000+0  18140-3 0  9992
2 43926  86.4224  43.6557 0004977  90.2712 269.9057 14.38608034260025
IRIDIUM 172             
1 43927U 19002F   23358.58498478  .00000518  00000+0  17804-3 0  9997
2 43927  86.3968  12.0463 0002097  93.0748 267.0687 14.34220649259166
IRIDIUM 175             
1 43928U 19002G   23358.48332899  .00001941  00000+0  30376-3 0  9991
2 43928  86.1509 355.2179 0002476  89.7314 270.4186 14.72268386265985
IRIDIUM 171             
1 43929U 19002H   23358.56595621 -.00000009  00000+0 -10263-4 0  9995
2 43929  86.3974  12.2602 0001993  91.3409 268.8015 14.34218006259158
IRIDIUM 170             
1 43930U 19002J   23358.56347069  .00001743  00000+0  27244-3 0  9998
2 43930  86.6098  12.1081 0002526  88.0912 272.0594 14.72273679266016
IRIDIUM 167             
1 43931U 19002K   23358.55961293  .00000485  00000+0  16598-3 0  9991
2 43931  86.3969  12.0711 0002084  90.1920 269.9515 14.34220110259157
IRIDIUM 181             
1 56726U 23068S   23358.59754384  .00000633  00000+0  18112-3 0  9998
2 56726  86.8628  57.2620 0002104  69.6161 290.5267 14.43585852 31802
IRIDIUM 177             
1 56727U 23068T   23358.59612161  .00002332  00000+0  30335-3 0  9994
2 56727  86.1978  38.7156 0002367  98.3031 261.8459 14.80244565 32403
IRIDIUM 174             
1 56728U 23068U   23358.65831833  .00002337  00000+0  30395-3 0  9992
2 56728  86.1983  38.7756 0002237  97.1874 262.9602 14.80254603 32411
IRIDIUM 178             
1 56729U 23068V   23358.58530715  .00002313  00000+0  30076-3 0  9990
2 56729  86.5784  47.9498 0002453  97.5674 262.5826 14.80263389 32406
IRIDIUM 179             
1 56730U 23068W   23358.57988618  .00002303  00000+0  29948-3 0  9995
2 56730  86.6792  49.8740 0002443  99.6694 260.4804 14.80260769 32405
